ONEWEB-0136             
1 47282U 20100AA  25273.37529970 -.00000177  00000+0 -52738-3 0  9991
2 47282  87.8934  42.2572 0001708 113.9363 246.1944 13.12442819230581
ONEWEB-0137             
1 47283U 20100AB  25272.87570256  .00000234  00000+0  61642-3 0  9995
2 47283  87.8935  42.3624 0001811  94.7295 265.4041 13.12443904230428
ONEWEB-0138             
1 47284U 20100AC  25273.08330314 -.00000352  00000+0 -10148-2 0  9996
2 47284  87.8933  42.3309 0001676 105.7935 254.3378 13.12441065230538
ONEWEB-0139             
1 47285U 20100AD  25273.35112257  .00000469  00000+0  12680-2 0  9991
2 47285  87.8933  42.2677 0001664  99.1843 260.9474 13.12443640230640
ONEWEB-0140             
1 47286U 20100AE  25273.07682707 -.00000362  00000+0 -10426-2 0  9993
2 47286  87.8933  42.3076 0001632 102.6833 257.4478 13.12443830230577
ONEWEB-0141             
1 47287U 20100AF  25273.27458847  .00000288  00000+0  76583-3 0  9994
2 47287  87.8927  42.2817 0001954  91.8858 268.2495 13.12443810230584
ONEWEB-0142             
1 47288U 20100AG  25273.41599971  .00000257  00000+0  67863-3 0  9992
2 47288  87.8938  42.2722 0002063  98.8219 261.3143 13.12443698230591
ONEWEB-0143             
1 47289U 20100AH  25273.34933868  .00000308  00000+0  82010-3 0  9990
2 47289  87.8934  42.2819 0001643  96.7545 263.3770 13.12443228230561
